start=new Date('2023-02-06T00:00:00.000Z').valueOf();
sats=[{"PERIOD":"95.438","NORAD_CAT_ID":"49750","RCS_SIZE":"LARGE","MEAN_ELEMENT_THEORY":"SGP4","CLASSIFICATION_TYPE":"U","MEAN_MOTION_DOT":"-0.00000471","TLE_LINE1":"1 49750U 21115AC  23036.79070603 -.00000471  00000-0 -11524-4 0  9992","APOAPSIS":"540.577","EPOCH":"2023-02-05T18:58:37.000992","LAUNCH_DATE":"2021-12-02","SITE":"AFETR","GP_ID":"224557871","OBJECT_NAME":"STARLINK-3236","COUNTRY_CODE":"US","INCLINATION":"53.2162","MEAN_MOTION":"15.08837392","PERIAPSIS":"538.930","MEAN_MOTION_DDOT":"0.0000000000000","BSTAR":"-0.00001152400000","MEAN_ANOMALY":"241.7256","REF_FRAME":"TEME","RA_OF_ASC_NODE":"172.4528","OBJECT_TYPE":"PAYLOAD","SEMIMAJOR_AXIS":"6917.888","TIME_SYSTEM":"UTC","ELEMENT_SET_NO":"999","ECCENTRICITY":"0.00011900","REV_AT_EPOCH":"6526","DECAY_DATE":null,"OBJECT_ID":"2021-115AC","EPHEMERIS_TYPE":"0","CENTER_NAME":"EARTH","FILE":"3774172","TLE_LINE2":"2 49750  53.2162 172.4528 0001190 118.3856 241.7256 15.08837392 65260","ARG_OF_PERICENTER":"118.3856"},{"MEAN_ANOMALY":"280.4709","MEAN_MOTION_DDOT":"0.0000000000000","BSTAR":"0.00543640000000","OBJECT_TYPE":"PAYLOAD","SEMIMAJOR_AXIS":"6915.616","RA_OF_ASC_NODE":"171.9066","REF_FRAME":"TEME","ELEMENT_SET_NO":"999","ECCENTRICITY":"0.00008260","TIME_SYSTEM":"UTC","DECAY_DATE":null,"OBJECT_ID":"2021-115AD","EPHEMERIS_TYPE":"0","REV_AT_EPOCH":"6528","CENTER_NAME":"EARTH","FILE":"3774172","TLE_LINE2":"2 49751  53.2161 171.9066 0000826  79.6377 280.4709 15.09581273 65283","ARG_OF_PERICENTER":"79.6377","NORAD_CAT_ID":"49751","PERIOD":"95.391","MEAN_ELEMENT_THEORY":"SGP4","RCS_SIZE":"LARGE","CLASSIFICATION_TYPE":"U","APOAPSIS":"538.052","EPOCH":"2023-02-05T21:52:08.315040","MEAN_MOTION_DOT":"0.00089123","TLE_LINE1":"1 49751U 21115AD  23036.91120735  .00089123  00000-0  54364-2 0  9995","SITE":"AFETR","LAUNCH_DATE":"2021-12-02","COUNTRY_CODE":"US","GP_ID":"224558621","OBJECT_NAME":"STARLINK-3229","INCLINATION":"53.2161","PERIAPSIS":"536.909","MEAN_MOTION":"15.09581273"},{"APOAPSIS":"540.433","EPOCH":"2023-02-05T17:45:44.905248","MEAN_MOTION_DOT":"0.00001127","TLE_LINE1":"1 49752U 21115AE  23036.74010307  .00001127  00000-0  88840-4 0  9996","SITE":"AFETR","LAUNCH_DATE":"2021-12-02","COUNTRY_CODE":"US","GP_ID":"224558873","OBJECT_NAME":"STARLINK-3209","INCLINATION":"53.2139","PERIAPSIS":"539.033","MEAN_MOTION":"15.08844099","NORAD_CAT_ID":"49752","PERIOD":"95.437","MEAN_ELEMENT_THEORY":"SGP4","RCS_SIZE":"LARGE","CLASSIFICATION_TYPE":"U","FILE":"3774172","CENTER_NAME":"EARTH","TLE_LINE2":"2 49752  53.2139 162.6898 0001012  93.6635 266.4473 15.08844099 65391","ARG_OF_PERICENTER":"93.6635","MEAN_ANOMALY":"266.4473","MEAN_MOTION_DDOT":"0.0000000000000","BSTAR":"0.00008884000000","OBJECT_TYPE":"PAYLOAD","SEMIMAJOR_AXIS":"6917.868","REF_FRAME":"TEME","RA_OF_ASC_NODE":"162.6898","ELEMENT_SET_NO":"999","ECCENTRICITY":"0.00010120","TIME_SYSTEM":"UTC","DECAY_DATE":null,"OBJECT_ID":"2021-115AE","EPHEMERIS_TYPE":"0","REV_AT_EPOCH":"6539"},{"FILE":"3774172","CENTER_NAME":"EARTH","TLE_LINE2":"2 49753  53.2148 172.1790 0001254 125.7261 234.3848 15.08841530 65273","ARG_OF_PERICENTER":"125.7261","MEAN_MOTION_DDOT":"0.0000000000000","BSTAR":"0.00003341500000","MEAN_ANOMALY":"234.3848","RA_OF_ASC_NODE":"172.1790","REF_FRAME":"TEME","SEMIMAJOR_AXIS":"6917.876","OBJECT_TYPE":"PAYLOAD","TIME_SYSTEM":"UTC","ELEMENT_SET_NO":"999","ECCENTRICITY":"0.00012540","REV_AT_EPOCH":"6527","DECAY_DATE":null,"OBJECT_ID":"2021-115AF","EPHEMERIS_TYPE":"0","MEAN_MOTION_DOT":"0.00000244","TLE_LINE1":"1 49753U 21115AF  23036.85326100  .00000244  00000-0  33415-4 0  9997","APOAPSIS":"540.608","EPOCH":"2023-02-05T20:28:41.750400","LAUNCH_DATE":"2021-12-02","SITE":"AFETR","GP_ID":"224559608","OBJECT_NAME":"STARLINK-3200","COUNTRY_CODE":"US","INCLINATION":"53.2148","PERIAPSIS":"538.873","MEAN_MOTION":"15.08841530","PERIOD":"95.437","NORAD_CAT_ID":"49753","RCS_SIZE":"LARGE","MEAN_ELEMENT_THEORY":"SGP4","CLASSIFICATION_TYPE":"U"},{"MEAN_ELEMENT_THEORY":"SGP4","RCS_SIZE":"LARGE","NORAD_CAT_ID":"49754","PERIOD":"95.437","CLASSIFICATION_TYPE":"U","SITE":"AFETR","LAUNCH_DATE":"2021-12-02","APOAPSIS":"540.676","EPOCH":"2023-02-05T17:36:31.698144","MEAN_MOTION_DOT":"0.00000998","TLE_LINE1":"1 49754U 21115AG  23036.73370021  .00000998  00000-0  80800-4 0  9992","INCLINATION":"53.2168","MEAN_MOTION":"15.08843930","PERIAPSIS":"538.791","COUNTRY_CODE":"US","GP_ID":"224558371","OBJECT_NAME":"STARLINK-3193","SEMIMAJOR_AXIS":"6917.868","OBJECT_TYPE":"PAYLOAD","RA_OF_ASC_NODE":"162.7091","REF_FRAME":"TEME","MEAN_ANOMALY":"269.1774","MEAN_MOTION_DDOT":"0.0000000000000","BSTAR":"0.00008080000000","OBJECT_ID":"2021-115AG","DECAY_DATE":null,"EPHEMERIS_TYPE":"0","REV_AT_EPOCH":"6539","ELEMENT_SET_NO":"999","ECCENTRICITY":"0.00013620","TIME_SYSTEM":"UTC","TLE_LINE2":"2 49754  53.2168 162.7091 0001362  90.9374 269.1774 15.08843930 65396","FILE":"3774172","CENTER_NAME":"EARTH","ARG_OF_PERICENTER":"90.9374"},{"MEAN_ELEMENT_THEORY":"SGP4","RCS_SIZE":"LARGE","NORAD_CAT_ID":"49755","PERIOD":"95.438","CLASSIFICATION_TYPE":"U","SITE":"AFETR","LAUNCH_DATE":"2021-12-02","APOAPSIS":"540.522","EPOCH":"2023-02-05T19:03:56.014848","MEAN_MOTION_DOT":"-0.00000663","TLE_LINE1":"1 49755U 21115AH  23036.79439832 -.00000663  00000-0 -23579-4 0  9996","INCLINATION":"53.2159","PERIAPSIS":"539.036","MEAN_MOTION":"15.08828980","COUNTRY_CODE":"US","GP_ID":"224558122","OBJECT_NAME":"STARLINK-3210","OBJECT_TYPE":"PAYLOAD","SEMIMAJOR_AXIS":"6917.914","REF_FRAME":"TEME","RA_OF_ASC_NODE":"172.4375","MEAN_ANOMALY":"260.1654","MEAN_MOTION_DDOT":"0.0000000000000","BSTAR":"-0.00002357900000","DECAY_DATE":null,"OBJECT_ID":"2021-115AH","EPHEMERIS_TYPE":"0","REV_AT_EPOCH":"6526","ELEMENT_SET_NO":"999","ECCENTRICITY":"0.00010740","TIME_SYSTEM":"UTC","TLE_LINE2":"2 49755  53.2159 172.4375 0001074  99.9460 260.1654 15.08828980 65267","FILE":"3774172","CENTER_NAME":"EARTH","ARG_OF_PERICENTER":"99.9460"},{"LAUNCH_DATE":"2021-12-02","SITE":"AFETR","MEAN_MOTION_DOT":"0.00004160","TLE_LINE1":"1 49756U 21115AJ  23036.75114632  .00004160  00000-0  27928-3 0  9996","APOAPSIS":"540.713","EPOCH":"2023-02-05T18:01:39.042048","INCLINATION":"53.2159","MEAN_MOTION":"15.08844275","PERIAPSIS":"538.752","GP_ID":"224559372","OBJECT_NAME":"STARLINK-3207","COUNTRY_CODE":"US","RCS_SIZE":"LARGE","MEAN_ELEMENT_THEORY":"SGP4","PERIOD":"95.437","NORAD_CAT_ID":"49756","CLASSIFICATION_TYPE":"U","TLE_LINE2":"2 49756  53.2159 162.6264 0001417  98.0269 262.0884 15.08844275 65399","CENTER_NAME":"EARTH","FILE":"3774172","ARG_OF_PERICENTER":"98.0269","REF_FRAME":"TEME","RA_OF_ASC_NODE":"162.6264","OBJECT_TYPE":"PAYLOAD","SEMIMAJOR_AXIS":"6917.867","MEAN_MOTION_DDOT":"0.0000000000000","BSTAR":"0.00027928000000","MEAN_ANOMALY":"262.0884","REV_AT_EPOCH":"6539","OBJECT_ID":"2021-115AJ","DECAY_DATE":null,"EPHEMERIS_TYPE":"0","TIME_SYSTEM":"UTC","ELEMENT_SET_NO":"999","ECCENTRICITY":"0.00014170"},{"LAUNCH_DATE":"2021-12-02","SITE":"AFETR","MEAN_MOTION_DOT":"0.00000823","TLE_LINE1":"1 49757U 21115AK  23036.74378293  .00000823  00000-0  69748-4 0  9990","APOAPSIS":"540.490","EPOCH":"2023-02-05T17:51:02.845152","INCLINATION":"53.2177","PERIAPSIS":"538.970","MEAN_MOTION":"15.08845105","GP_ID":"224559109","OBJECT_NAME":"STARLINK-3197","COUNTRY_CODE":"US","RCS_SIZE":"LARGE","MEAN_ELEMENT_THEORY":"SGP4","PERIOD":"95.437","NORAD_CAT_ID":"49757","CLASSIFICATION_TYPE":"U","TLE_LINE2":"2 49757  53.2177 162.6614 0001099  88.0295 272.0823 15.08845105 65390","CENTER_NAME":"EARTH","FILE":"3774172","ARG_OF_PERICENTER":"88.0295","RA_OF_ASC_NODE":"162.6614","REF_FRAME":"TEME","OBJECT_TYPE":"PAYLOAD","SEMIMAJOR_AXIS":"6917.865","MEAN_MOTION_DDOT":"0.0000000000000","BSTAR":"0.00006974800000","MEAN_ANOMALY":"272.0823","REV_AT_EPOCH":"6539","DECAY_DATE":null,"OBJECT_ID":"2021-115AK","EPHEMERIS_TYPE":"0","TIME_SYSTEM":"UTC","ELEMENT_SET_NO":"999","ECCENTRICITY":"0.00010990"},{"LAUNCH_DATE":"2021-12-02","SITE":"AFETR","TLE_LINE1":"1 49758U 21115AL  23036.75850214  .00000644  00000-0  58537-4 0  9995","MEAN_MOTION_DOT":"0.00000644","EPOCH":"2023-02-05T18:12:14.584896","APOAPSIS":"540.569","MEAN_MOTION":"15.08841615","PERIAPSIS":"538.912","INCLINATION":"53.2143","OBJECT_NAME":"STARLINK-3194","GP_ID":"224557872","COUNTRY_CODE":"US","RCS_SIZE":"LARGE","MEAN_ELEMENT_THEORY":"SGP4","PERIOD":"95.437","NORAD_CAT_ID":"49758","CLASSIFICATION_TYPE":"U","TLE_LINE2":"2 49758  53.2143 162.6085 0001197 102.6144 257.4982 15.08841615 65396","CENTER_NAME":"EARTH","FILE":"3774172","ARG_OF_PERICENTER":"102.6144","REF_FRAME":"TEME","RA_OF_ASC_NODE":"162.6085","SEMIMAJOR_AXIS":"6917.875","OBJECT_TYPE":"PAYLOAD","BSTAR":"0.00005853700000","MEAN_MOTION_DDOT":"0.0000000000000","MEAN_ANOMALY":"257.4982","REV_AT_EPOCH":"6539","EPHEMERIS_TYPE":"0","DECAY_DATE":null,"OBJECT_ID":"2021-115AL","TIME_SYSTEM":"UTC","ECCENTRICITY":"0.00011970","ELEMENT_SET_NO":"999"},{"REF_FRAME":"TEME","RA_OF_ASC_NODE":"163.2438","OBJECT_TYPE":"PAYLOAD","SEMIMAJOR_AXIS":"6917.872","BSTAR":"-0.00000294920000","MEAN_MOTION_DDOT":"0.0000000000000","MEAN_ANOMALY":"271.8954","REV_AT_EPOCH":"6537","EPHEMERIS_TYPE":"0","DECAY_DATE":null,"OBJECT_ID":"2021-115AM","TIME_SYSTEM":"UTC","ECCENTRICITY":"0.00010350","ELEMENT_SET_NO":"999","TLE_LINE2":"2 49759  53.2160 163.2438 0001035  88.2156 271.8954 15.08842647 65371","FILE":"3774172","CENTER_NAME":"EARTH","ARG_OF_PERICENTER":"88.2156","RCS_SIZE":"LARGE","MEAN_ELEMENT_THEORY":"SGP4","PERIOD":"95.437","NORAD_CAT_ID":"49759","CLASSIFICATION_TYPE":"U","LAUNCH_DATE":"2021-12-02","SITE":"AFETR","TLE_LINE1":"1 49759U 21115AM  23036.61498737 -.00000335  00000-0 -29492-5 0  9997","MEAN_MOTION_DOT":"-0.00000335","EPOCH":"2023-02-05T14:45:34.908768","APOAPSIS":"540.453","PERIAPSIS":"539.021","MEAN_MOTION":"15.08842647","INCLINATION":"53.2160","OBJECT_NAME":"STARLINK-3204","GP_ID":"224558622","COUNTRY_CODE":"US"}];
